[{"OBJECT_NAME":"QIANFAN-27","OBJECT_ID":"2024-185J","EPOCH":"2026-03-09T22:56:55.395744","MEAN_MOTION":14.27448593,"ECCENTRICITY":0.00081881,"INCLINATION":88.9753,"RA_OF_ASC_NODE":66.6975,"ARG_OF_PERICENTER":20.0445,"MEAN_ANOMALY":340.107,"EPHEMERIS_TYPE":0,"CLASSIFICATION_TYPE":"U","NORAD_CAT_ID":61560,"ELEMENT_SET_NO":999,"REV_AT_EPOCH":8260,"BSTAR":0.00025107237,"MEAN_MOTION_DOT":6.31e-6,"MEAN_MOTION_DDOT":0},{"OBJECT_NAME":"CZ-6A DEB","OBJECT_ID":"2022-151RF","EPOCH":"2026-03-08T23:15:14.306976","MEAN_MOTION":14.20895621,"ECCENTRICITY":0.00285867,"INCLINATION":98.8205,"RA_OF_ASC_NODE":83.7162,"ARG_OF_PERICENTER":227.9,"MEAN_ANOMALY":131.9746,"EPHEMERIS_TYPE":0,"CLASSIFICATION_TYPE":"U","NORAD_CAT_ID":54918,"ELEMENT_SET_NO":999,"REV_AT_EPOCH":16808,"BSTAR":0.0014268493,"MEAN_MOTION_DOT":3.056e-5,"MEAN_MOTION_DDOT":0}]
